{"fetched_at":"2026-07-13T18:16:31.793Z","source":"https://celestrak.org/NORAD/elements/gp.php?GROUP=oneweb&FORMAT=JSON","constellation":"oneweb","records":[{"OBJECT_NAME":"ONEWEB-0116","OBJECT_ID":"2021-025E","EPOCH":"2026-07-12T20:59:29.773824","CLASSIFICATION_TYPE":"U","MEAN_MOTION":13.13469551,"ECCENTRICITY":0.00018236,"INCLINATION":87.8988,"RA_OF_ASC_NODE":315.1066,"ARG_OF_PERICENTER":103.295,"MEAN_ANOMALY":256.8383,"EPHEMERIS_TYPE":0,"NORAD_CAT_ID":48046,"ELEMENT_SET_NO":999,"REV_AT_EPOCH":25702,"BSTAR":0.00066163904,"MEAN_MOTION_DOT":0.00000254,"MEAN_MOTION_DDOT":0},{"OBJECT_NAME":"ONEWEB-0150","OBJECT_ID":"2021-025F","EPOCH":"2026-07-13T07:23:32.834688","CLASSIFICATION_TYPE":"U","MEAN_MOTION":13.13470317,"ECCENTRICITY":0.00019027,"INCLINATION":87.8985,"RA_OF_ASC_NODE":315.0183,"ARG_OF_PERICENTER":94.2378,"MEAN_ANOMALY":265.8969,"EPHEMERIS_TYPE":0,"NORAD_CAT_ID":48047,"ELEMENT_SET_NO":999,"REV_AT_EPOCH":25697,"BSTAR":0.000095548911,"MEAN_MOTION_DOT":4.8e-7,"MEAN_MOTION_DDOT":0},{"OBJECT_NAME":"ONEWEB-0107","OBJECT_ID":"2021-025G","EPOCH":"2026-07-13T07:25:59.395008","CLASSIFICATION_TYPE":"U","MEAN_MOTION":13.13472902,"ECCENTRICITY":0.00021149,"INCLINATION":87.8986,"RA_OF_ASC_NODE":315.0139,"ARG_OF_PERICENTER":98.2322,"MEAN_ANOMALY":261.9047,"EPHEMERIS_TYPE":0,"NORAD_CAT_ID":48048,"ELEMENT_SET_NO":999,"REV_AT_EPOCH":25695,"BSTAR":0.00032641161,"MEAN_MOTION_DOT":0.00000132,"MEAN_MOTION_DDOT":0},{"OBJECT_NAME":"ONEWEB-0101","OBJECT_ID":"2021-025H","EPOCH":"2026-07-13T06:32:20.989824","CLASSIFICATION_TYPE":"U","MEAN_MOTION":13.13470544,"ECCENTRICITY":0.00020934,"INCLINATION":87.8979,"RA_OF_ASC_NODE":315.0337,"ARG_OF_PERICENTER":106.2964,"MEAN_ANOMALY":253.8396,"EPHEMERIS_TYPE":0,"NORAD_CAT_ID":48049,"ELEMENT_SET_NO":999,"REV_AT_EPOCH":25692,"BSTAR":-0.00033042349,"MEAN_MOTION_DOT":-0.00000108,"MEAN_MOTION_DDOT":0},{"OBJECT_NAME":"ONEWEB-0113","OBJECT_ID":"2021-025J","EPOCH":"2026-07-13T06:55:20.784864","CLASSIFICATION_TYPE":"U","MEAN_MOTION":13.13890981,"ECCENTRICITY":0.00018911,"INCLINATION":87.898,"RA_OF_ASC_NODE":314.9387,"ARG_OF_PERICENTER":94.7557,"MEAN_ANOMALY":265.3788,"EPHEMERIS_TYPE":0,"NORAD_CAT_ID":48050,"ELEMENT_SET_NO":999,"REV_AT_EPOCH":25703,"BSTAR":-0.0007805179,"MEAN_MOTION_DOT":-0.00000274,"MEAN_MOTION_DDOT":0},{"OBJECT_NAME":"ONEWEB-0112","OBJECT_ID":"2021-025K","EPOCH":"2026-07-13T07:33:17.767872","CLASSIFICATION_TYPE":"U","MEAN_MOTION":13.1347015,"ECCENTRICITY":0.0002156,"INCLINATION":87.8991,"RA_OF_ASC_NODE":315.0102,"ARG_OF_PERICENTER":104.1268,"MEAN_ANOMALY":256.0101,"EPHEMERIS_TYPE":0,"NORAD_CAT_ID":48051,"ELEMENT_SET_NO":999,"REV_AT_EPOCH":25702,"BSTAR":0.00086490749,"MEAN_MOTION_DOT":0.00000329,"MEAN_MOTION_DDOT":0},{"OBJECT_NAME":"ONEWEB-0156","OBJECT_ID":"2021-025L","EPOCH":"2026-07-13T07:45:28.690272","CLASSIFICATION_TYPE":"U","MEAN_MOTION":13.13472292,"ECCENTRICITY":0.00019711,"INCLINATION":87.9001,"RA_OF_ASC_NODE":315.0169,"ARG_OF_PERICENTER":100.822,"MEAN_ANOMALY":259.3131,"EPHEMERIS_TYPE":0,"NORAD_CAT_ID":48052,"ELEMENT_SET_NO":999,"REV_AT_EPOCH":25700,"BSTAR":0.0010089982,"MEAN_MOTION_DOT":0.00000381,"MEAN_MOTION_DDOT":0},{"OBJECT_NAME":"ONEWEB-0161","OBJECT_ID":"2021-025M","EPOCH":"2026-07-13T07:08:54.468096","CLASSIFICATION_TYPE":"U","MEAN_MOTION":13.13469825,"ECCENTRICITY":0.00020886,"INCLINATION":87.8984,"RA_OF_ASC_NODE":315.0253,"ARG_OF_PERICENTER":96.6891,"MEAN_ANOMALY":263.4475,"EPHEMERIS_TYPE":0,"NORAD_CAT_ID":48053,"ELEMENT_SET_NO":999,"REV_AT_EPOCH":25693,"BSTAR":-0.00050905208,"MEAN_MOTION_DOT":-0.00000173,"MEAN_MOTION_DDOT":0},{"OBJECT_NAME":"ONEWEB-0158","OBJECT_ID":"2021-025N","EPOCH":"2026-07-12T21:01:57.235296","CLASSIFICATION_TYPE":"U","MEAN_MOTION":13.13471166,"ECCENTRICITY":0.00017408,"INCLINATION":87.899,"RA_OF_ASC_NODE":315.1054,"ARG_OF_PERICENTER":111.5692,"MEAN_ANOMALY":248.5623,"EPHEMERIS_TYPE":0,"NORAD_CAT_ID":48054,"ELEMENT_SET_NO":999,"REV_AT_EPOCH":25700,"BSTAR":0.00058220369,"MEAN_MOTION_DOT":0.00000225,"MEAN_MOTION_DDOT":0},{"OBJECT_NAME":"ONEWEB-0157","OBJECT_ID":"2021-025P","EPOCH":"2026-07-13T06:46:58.158912","CLASSIFICATION_TYPE":"U","MEAN_MOTION":13.13470868,"ECCENTRICITY":0.00022662,"INCLINATION":87.8984,"RA_OF_ASC_NODE":315.0302,"ARG_OF_PERICENTER":97.443,"MEAN_ANOMALY":262.6956,"EPHEMERIS_TYPE":0,"NORAD_CAT_ID":48055,"ELEMENT_SET_NO":999,"REV_AT_EPOCH":25699,"BSTAR":-0.00102468,"MEAN_MOTION_DOT":-0.00000361,"MEAN_MOTION_DDOT":0},{"OBJECT_NAME":"ONEWEB-0162","OBJECT_ID":"2021-025Q","EPOCH":"2026-07-12T21:04:11.046432","CLASSIFICATION_TYPE":"U","MEAN_MOTION":13.13469126,"ECCENTRICITY":0.00018946,"INCLINATION":87.8981,"RA_OF_ASC_NODE":315.1112,"ARG_OF_PERICENTER":99.2476,"MEAN_ANOMALY":260.8868,"EPHEMERIS_TYPE":0,"NORAD_CAT_ID":48056,"ELEMENT_SET_NO":999,"REV_AT_EPOCH":25691,"BSTAR":0.00039796627,"MEAN_MOTION_DOT":0.00000158,"MEAN_MOTION_DDOT":0},{"OBJECT_NAME":"ONEWEB-0155","OBJECT_ID":"2021-025R","EPOCH":"2026-07-12T21:14:08.532672","CLASSIFICATION_TYPE":"U","MEAN_MOTION":13.13473145,"ECCENTRICITY":0.00020291,"INCLINATION":87.8982,"RA_OF_ASC_NODE":315.1065,"ARG_OF_PERICENTER":99.1512,"MEAN_ANOMALY":260.9847,"EPHEMERIS_TYPE":0,"NORAD_CAT_ID":48057,"ELEMENT_SET_NO":999,"REV_AT_EPOCH":25705,"BSTAR":-0.000087368921,"MEAN_MOTION_DOT":-1.9e-7,"MEAN_MOTION_DDOT":0},{"OBJECT_NAME":"ONEWEB-0149","OBJECT_ID":"2021-025S","EPOCH":"2026-07-12T19:56:06.946080","CLASSIFICATION_TYPE":"U","MEAN_MOTION":13.13469872,"ECCENTRICITY":0.00018442,"INCLINATION":87.8972,"RA_OF_ASC_NODE":315.1238,"ARG_OF_PERICENTER":100.9486,"MEAN_ANOMALY":259.1851,"EPHEMERIS_TYPE":0,"NORAD_CAT_ID":48058,"ELEMENT_SET_NO":999,"REV_AT_EPOCH":25685,"BSTAR":-0.00091731045,"MEAN_MOTION_DOT":-0.00000322,"MEAN_MOTION_DDOT":0},{"OBJECT_NAME":"ONEWEB-0148","OBJECT_ID":"2021-025T","EPOCH":"2026-07-13T07:50:21.736608","CLASSIFICATION_TYPE":"U","MEAN_MOTION":13.13469477,"ECCENTRICITY":0.00019609,"INCLINATION":87.8976,"RA_OF_ASC_NODE":315.0281,"ARG_OF_PERICENTER":83.6454,"MEAN_ANOMALY":276.4899,"EPHEMERIS_TYPE":0,"NORAD_CAT_ID":48059,"ELEMENT_SET_NO":999,"REV_AT_EPOCH":25704,"BSTAR":0.00081241726,"MEAN_MOTION_DOT":0.00000309,"MEAN_MOTION_DDOT":0},{"OBJECT_NAME":"ONEWEB-0160","OBJECT_ID":"2021-025U","EPOCH":"2026-07-13T06:25:01.854912","CLASSIFICATION_TYPE":"U","MEAN_MOTION":13.13469088,"ECCENTRICITY":0.00013331,"INCLINATION":87.8982,"RA_OF_ASC_NODE":315.035,"ARG_OF_PERICENTER":112.8819,"MEAN_ANOMALY":247.2451,"EPHEMERIS_TYPE":0,"NORAD_CAT_ID":48060,"ELEMENT_SET_NO":999,"REV_AT_EPOCH":25698,"BSTAR":0.000066636326,"MEAN_MOTION_DOT":3.7e-7,"MEAN_MOTION_DDOT":0},{"OBJECT_NAME":"ONEWEB-0163","OBJECT_ID":"2021-025V","EPOCH":"2026-07-13T07:52:47.939232","CLASSIFICATION_TYPE":"U","MEAN_MOTION":13.13469256,"ECCENTRICITY":0.00022043,"INCLINATION":87.8986,"RA_OF_ASC_NODE":315.0201,"ARG_OF_PERICENTER":99.4768,"MEAN_ANOMALY":260.6611,"EPHEMERIS_TYPE":0,"NORAD_CAT_ID":48061,"ELEMENT_SET_NO":999,"REV_AT_EPOCH":25711,"BSTAR":0.00079826588,"MEAN_MOTION_DOT":0.00000304,"MEAN_MOTION_DDOT":0}]}
