ONEWEB-0116             
1 48046U 21025E   26193.87465016  .00000254  00000+0  66164-3 0  9996
2 48046  87.8988 315.1066 0001823 103.2950 256.8383 13.13469551257027
ONEWEB-0150             
1 48047U 21025F   26194.30801892  .00000048  00000+0  95549-4 0  9993
2 48047  87.8985 315.0183 0001902  94.2378 265.8969 13.13470317256970
ONEWEB-0107             
1 48048U 21025G   26194.30971522  .00000132  00000+0  32641-3 0  9999
2 48048  87.8986 315.0139 0002114  98.2322 261.9047 13.13472902256956
ONEWEB-0101             
1 48049U 21025H   26194.27246516 -.00000108  00000+0 -33042-3 0  9995
2 48049  87.8979 315.0337 0002093 106.2964 253.8396 13.13470544256921
ONEWEB-0113             
1 48050U 21025J   26194.28843501 -.00000274  00000+0 -78052-3 0  9999
2 48050  87.8980 314.9387 0001891  94.7557 265.3788 13.13890981257039
ONEWEB-0112             
1 48051U 21025K   26194.31478898  .00000329  00000+0  86491-3 0  9992
2 48051  87.8991 315.0102 0002156 104.1268 256.0101 13.13470150257026
ONEWEB-0156             
1 48052U 21025L   26194.32324873  .00000381  00000+0  10090-2 0  9996
2 48052  87.9001 315.0169 0001971 100.8220 259.3131 13.13472292257004
ONEWEB-0161             
1 48053U 21025M   26194.29785264 -.00000173  00000+0 -50905-3 0  9999
2 48053  87.8984 315.0253 0002088  96.6891 263.4475 13.13469825256930
ONEWEB-0158             
1 48054U 21025N   26193.87635689  .00000225  00000+0  58220-3 0  9992
2 48054  87.8990 315.1054 0001740 111.5692 248.5623 13.13471166257007
ONEWEB-0157             
1 48055U 21025P   26194.28261758 -.00000361  00000+0 -10247-2 0  9990
2 48055  87.8984 315.0302 0002266  97.4430 262.6956 13.13470868256993
ONEWEB-0162             
1 48056U 21025Q   26193.87790563  .00000158  00000+0  39797-3 0  9990
2 48056  87.8981 315.1112 0001894  99.2476 260.8868 13.13469126256916
ONEWEB-0155             
1 48057U 21025R   26193.88482098 -.00000019  00000+0 -87369-4 0  9990
2 48057  87.8982 315.1065 0002029  99.1512 260.9847 13.13473145257056
ONEWEB-0149             
1 48058U 21025S   26193.83063595 -.00000322  00000+0 -91731-3 0  9997
2 48058  87.8972 315.1238 0001844 100.9486 259.1851 13.13469872256857
ONEWEB-0148             
1 48059U 21025T   26194.32664047  .00000309  00000+0  81242-3 0  9991
2 48059  87.8976 315.0281 0001960  83.6454 276.4899 13.13469477257047
ONEWEB-0160             
1 48060U 21025U   26194.26738258  .00000037  00000+0  66636-4 0  9991
2 48060  87.8982 315.0350 0001333 112.8819 247.2451 13.13469088256987
ONEWEB-0163             
1 48061U 21025V   26194.32833263  .00000304  00000+0  79827-3 0  9993
2 48061  87.8986 315.0201 0002204  99.4768 260.6611 13.13469256257118
